{"type": "FeatureCollection", "features": [{"type": "Feature", "properties": {"norad_id": 36828, "name": "BEIDOU-2 IGSO-1 (C06)", "group": "beidou", "lat": 29.807051104029885, "lon": -39.838620546323185, "alt_km": 35715.80732467106, "timestamp": "2025-12-25T07:00:34.310945+00:00", "meta": {"OBJECT_NAME": "BEIDOU-2 IGSO-1 (C06)", "OBJECT_ID": "2010-036A", "EPOCH": "2025-12-20T21:47:26.739168", "MEAN_MOTION": 1.00282395, "ECCENTRICITY": 0.0051798, "INCLINATION": 54.2882, "RA_OF_ASC_NODE": 164.5739, "ARG_OF_PERICENTER": 215.2932, "MEAN_ANOMALY": 144.6604, "EPHEMERIS_TYPE": 0, "CLASSIFICATION_TYPE": "U", "NORAD_CAT_ID": 36828, "ELEMENT_SET_NO": 999, "REV_AT_EPOCH": 5631, "BSTAR": 0, "MEAN_MOTION_DOT": -5.5e-07, "MEAN_MOTION_DDOT": 0}, "tle": {"line1": "1 36828U 10036A   25354.90794837 -.00000055  00000+0  00000+0 0  9992", "line2": "2 36828  54.2882 164.5739 0051798 215.2932 144.6604  1.00282395 56317"}}, "geometry": {"type": "Point", "coordinates": [-39.838620546323185, 29.807051104029885]}}, {"type": "Feature", "properties": {"norad_id": 37210, "name": "BEIDOU-2 G4 (C04)", "group": "beidou", "lat": -3.0358741358347205, "lon": -0.5748966830978899, "alt_km": 35790.73138187983, "timestamp": "2025-12-25T07:00:34.310969+00:00", "meta": {"OBJECT_NAME": "BEIDOU-2 G4 (C04)", "OBJECT_ID": "2010-057A", "EPOCH": "2025-12-24T20:42:34.844256", "MEAN_MOTION": 1.00271563, "ECCENTRICITY": 0.0010423, "INCLINATION": 3.2126, "RA_OF_ASC_NODE": 69.8922, "ARG_OF_PERICENTER": 193.8938, "MEAN_ANOMALY": 300.575, "EPHEMERIS_TYPE": 0, "CLASSIFICATION_TYPE": "U", "NORAD_CAT_ID": 37210, "ELEMENT_SET_NO": 999, "REV_AT_EPOCH": 5554, "BSTAR": 0, "MEAN_MOTION_DOT": -9.1e-07, "MEAN_MOTION_DDOT": 0}, "tle": {"line1": "1 37210U 10057A   25358.86290329 -.00000091  00000+0  00000+0 0  9997", "line2": "2 37210   3.2126  69.8922 0010423 193.8938 300.5750  1.00271563 55540"}}, "geometry": {"type": "Point", "coordinates": [-0.5748966830978899, -3.0358741358347205]}}, {"type": "Feature", "properties": {"norad_id": 37256, "name": "BEIDOU-2 IGSO-2 (C07)", "group": "beidou", "lat": 23.99659669902698, "lon": -62.28330107327934, "alt_km": 35984.81733425319, "timestamp": "2025-12-25T07:00:34.310984+00:00", "meta": {"OBJECT_NAME": "BEIDOU-2 IGSO-2 (C07)", "OBJECT_ID": "2010-068A", "EPOCH": "2025-12-24T17:01:55.972704", "MEAN_MOTION": 1.00282798, "ECCENTRICITY": 0.0048511, "INCLINATION": 47.864, "RA_OF_ASC_NODE": 274.0027, "ARG_OF_PERICENTER": 216.2647, "MEAN_ANOMALY": 326.7558, "EPHEMERIS_TYPE": 0, "CLASSIFICATION_TYPE": "U", "NORAD_CAT_ID": 37256, "ELEMENT_SET_NO": 999, "REV_AT_EPOCH": 5504, "BSTAR": 0, "MEAN_MOTION_DOT": -1.92e-06, "MEAN_MOTION_DDOT": 0}, "tle": {"line1": "1 37256U 10068A   25358.70967561 -.00000192  00000+0  00000+0 0  9993", "line2": "2 37256  47.8640 274.0027 0048511 216.2647 326.7558  1.00282798 55040"}}, "geometry": {"type": "Point", "coordinates": [-62.28330107327934, 23.99659669902698]}}, {"type": "Feature", "properties": {"norad_id": 37384, "name": "BEIDOU-2 IGSO-3 (C08)", "group": "beidou", "lat": -61.736014235208344, "lon": -58.883647331124, "alt_km": 35759.93918888907, "timestamp": "2025-12-25T07:00:34.310997+00:00", "meta": {"OBJECT_NAME": "BEIDOU-2 IGSO-3 (C08)", "OBJECT_ID": "2011-013A", "EPOCH": "2025-12-24T13:36:08.179776", "MEAN_MOTION": 1.00268125, "ECCENTRICITY": 0.00352821, "INCLINATION": 62.1584, "RA_OF_ASC_NODE": 41.8043, "ARG_OF_PERICENTER": 187.8377, "MEAN_ANOMALY": 174.9924, "EPHEMERIS_TYPE": 0, "CLASSIFICATION_TYPE": "U", "NORAD_CAT_ID": 37384, "ELEMENT_SET_NO": 999, "REV_AT_EPOCH": 5391, "BSTAR": 0, "MEAN_MOTION_DOT": -1.63e-06, "MEAN_MOTION_DDOT": 0}, "tle": {"line1": "1 37384U 11013A   25358.56676134 -.00000163  00000+0  00000+0 0  9991", "line2": "2 37384  62.1584  41.8043 0035282 187.8377 174.9924  1.00268125 53913"}}, "geometry": {"type": "Point", "coordinates": [-58.883647331124, -61.736014235208344]}}, {"type": "Feature", "properties": {"norad_id": 37763, "name": "BEIDOU-2 IGSO-4 (C09)", "group": "beidou", "lat": 41.79592945530458, "lon": -52.32274385150345, "alt_km": 35933.87188750689, "timestamp": "2025-12-25T07:00:34.311011+00:00", "meta": {"OBJECT_NAME": "BEIDOU-2 IGSO-4 (C09)", "OBJECT_ID": "2011-038A", "EPOCH": "2025-12-21T10:06:26.864064", "MEAN_MOTION": 1.00280083, "ECCENTRICITY": 0.01491557, "INCLINATION": 54.5854, "RA_OF_ASC_NODE": 167.2693, "ARG_OF_PERICENTER": 230.0944, "MEAN_ANOMALY": 299.1265, "EPHEMERIS_TYPE": 0, "CLASSIFICATION_TYPE": "U", "NORAD_CAT_ID": 37763, "ELEMENT_SET_NO": 999, "REV_AT_EPOCH": 5286, "BSTAR": 0, "MEAN_MOTION_DOT": 5.9e-07, "MEAN_MOTION_DDOT": 0}, "tle": {"line1": "1 37763U 11038A   25355.42114426  .00000059  00000+0  00000+0 0  9995", "line2": "2 37763  54.5854 167.2693 0149155 230.0944 299.1265  1.00280083 52867"}}, "geometry": {"type": "Point", "coordinates": [-52.32274385150345, 41.79592945530458]}}, {"type": "Feature", "properties": {"norad_id": 37948, "name": "BEIDOU-2 IGSO-5 (C10)", "group": "beidou", "lat": 14.428992675746082, "lon": -72.91320742966248, "alt_km": 36206.806120604946, "timestamp": "2025-12-25T07:00:34.311024+00:00", "meta": {"OBJECT_NAME": "BEIDOU-2 IGSO-5 (C10)", "OBJECT_ID": "2011-073A", "EPOCH": "2025-12-24T17:40:34.414752", "MEAN_MOTION": 1.00288414, "ECCENTRICITY": 0.01097165, "INCLINATION": 47.9979, "RA_OF_ASC_NODE": 273.7118, "ARG_OF_PERICENTER": 222.1575, "MEAN_ANOMALY": 316.4289, "EPHEMERIS_TYPE": 0, "CLASSIFICATION_TYPE": "U", "NORAD_CAT_ID": 37948, "ELEMENT_SET_NO": 999, "REV_AT_EPOCH": 5138, "BSTAR": 0, "MEAN_MOTION_DOT": -1.39e-06, "MEAN_MOTION_DDOT": 0}, "tle": {"line1": "1 37948U 11073A   25358.73650943 -.00000139  00000+0  00000+0 0  9995", "line2": "2 37948  47.9979 273.7118 0109716 222.1575 316.4289  1.00288414 51383"}}, "geometry": {"type": "Point", "coordinates": [-72.91320742966248, 14.428992675746082]}}, {"type": "Feature", "properties": {"norad_id": 38091, "name": "BEIDOU-2 G5 (C05)", "group": "beidou", "lat": -0.4077554534513544, "lon": -102.19081155101792, "alt_km": 35747.3749663862, "timestamp": "2025-12-25T07:00:34.311036+00:00", "meta": {"OBJECT_NAME": "BEIDOU-2 G5 (C05)", "OBJECT_ID": "2012-008A", "EPOCH": "2025-12-24T21:56:20.279040", "MEAN_MOTION": 1.00269863, "ECCENTRICITY": 0.00130968, "INCLINATION": 3.1376, "RA_OF_ASC_NODE": 70.6644, "ARG_OF_PERICENTER": 232.215, "MEAN_ANOMALY": 178.6217, "EPHEMERIS_TYPE": 0, "CLASSIFICATION_TYPE": "U", "NORAD_CAT_ID": 38091, "ELEMENT_SET_NO": 999, "REV_AT_EPOCH": 5062, "BSTAR": 0, "MEAN_MOTION_DOT": 7.7e-07, "MEAN_MOTION_DDOT": 0}, "tle": {"line1": "1 38091U 12008A   25358.91412360  .00000077  00000+0  00000+0 0  9993", "line2": "2 38091   3.1376  70.6644 0013096 232.2150 178.6217  1.00269863 50624"}}, "geometry": {"type": "Point", "coordinates": [-102.19081155101792, -0.4077554534513544]}}, {"type": "Feature", "properties": {"norad_id": 38250, "name": "BEIDOU-2 M3 (C11)", "group": "beidou", "lat": 40.81227397180374, "lon": -13.531729857301729, "alt_km": 21572.045376489834, "timestamp": "2025-12-25T07:00:34.311048+00:00", "meta": {"OBJECT_NAME": "BEIDOU-2 M3 (C11)", "OBJECT_ID": "2012-018A", "EPOCH": "2025-12-24T03:22:03.617760", "MEAN_MOTION": 1.86230154, "ECCENTRICITY": 0.00241099, "INCLINATION": 55.9106, "RA_OF_ASC_NODE": 310.7747, "ARG_OF_PERICENTER": 275.3713, "MEAN_ANOMALY": 84.3565, "EPHEMERIS_TYPE": 0, "CLASSIFICATION_TYPE": "U", "NORAD_CAT_ID": 38250, "ELEMENT_SET_NO": 999, "REV_AT_EPOCH": 9268, "BSTAR": 0, "MEAN_MOTION_DOT": -5.3e-07, "MEAN_MOTION_DDOT": 0}, "tle": {"line1": "1 38250U 12018A   25358.14031965 -.00000053  00000+0  00000+0 0  9999", "line2": "2 38250  55.9106 310.7747 0024109 275.3713  84.3565  1.86230154 92685"}}, "geometry": {"type": "Point", "coordinates": [-13.531729857301729, 40.81227397180374]}}, {"type": "Feature", "properties": {"norad_id": 38251, "name": "BEIDOU-2 M4 (C12)", "group": "beidou", "lat": 55.08951267185276, "lon": 53.279139731639944, "alt_km": 21564.353052685536, "timestamp": "2025-12-25T07:00:34.311060+00:00", "meta": {"OBJECT_NAME": "BEIDOU-2 M4 (C12)", "OBJECT_ID": "2012-018B", "EPOCH": "2025-12-24T01:44:14.261856", "MEAN_MOTION": 1.86229893, "ECCENTRICITY": 0.00152512, "INCLINATION": 55.8118, "RA_OF_ASC_NODE": 310.0049, "ARG_OF_PERICENTER": 279.3729, "MEAN_ANOMALY": 80.4579, "EPHEMERIS_TYPE": 0, "CLASSIFICATION_TYPE": "U", "NORAD_CAT_ID": 38251, "ELEMENT_SET_NO": 999, "REV_AT_EPOCH": 9268, "BSTAR": 0, "MEAN_MOTION_DOT": -5.3e-07, "MEAN_MOTION_DDOT": 0}, "tle": {"line1": "1 38251U 12018B   25358.07238729 -.00000053  00000+0  00000+0 0  9999", "line2": "2 38251  55.8118 310.0049 0015251 279.3729  80.4579  1.86229893 92685"}}, "geometry": {"type": "Point", "coordinates": [53.279139731639944, 55.08951267185276]}}, {"type": "Feature", "properties": {"norad_id": 38775, "name": "BEIDOU-2 M6 (C14)", "group": "beidou", "lat": -50.82587368168734, "lon": 14.056078043868764, "alt_km": 21513.888246773287, "timestamp": "2025-12-25T07:00:34.311071+00:00", "meta": {"OBJECT_NAME": "BEIDOU-2 M6 (C14)", "OBJECT_ID": "2012-050B", "EPOCH": "2025-12-24T07:41:05.368128", "MEAN_MOTION": 1.86230801, "ECCENTRICITY": 0.00114872, "INCLINATION": 56.388, "RA_OF_ASC_NODE": 68.6832, "ARG_OF_PERICENTER": 343.1884, "MEAN_ANOMALY": 16.8281, "EPHEMERIS_TYPE": 0, "CLASSIFICATION_TYPE": "U", "NORAD_CAT_ID": 38775, "ELEMENT_SET_NO": 999, "REV_AT_EPOCH": 9005, "BSTAR": 0, "MEAN_MOTION_DOT": -2.4e-07, "MEAN_MOTION_DDOT": 0}, "tle": {"line1": "1 38775U 12050B   25358.32020102 -.00000024  00000+0  00000+0 0  9996", "line2": "2 38775  56.3880  68.6832 0011487 343.1884  16.8281  1.86230801 90056"}}, "geometry": {"type": "Point", "coordinates": [14.056078043868764, -50.82587368168734]}}]}